NORAD_CAT_ID,OBJECT_NAME,OBJECT_TYPE,EPOCH,MEAN_MOTION,ECCENTRICITY,INCLINATION,RA_OF_ASC_NODE,ARG_OF_PERICENTER,MEAN_ANOMALY,BSTAR,MEAN_MOTION_DOT,MEAN_MOTION_DDOT,TLE_LINE0,TLE_LINE1,TLE_LINE2,SEMIMAJOR_AXIS,PERIOD,APOGEE,PERIGEE,DECAYED
52678.0,STARLINK-4074,PAYLOAD,2023-05-31 21:21:15,15.08846186,0.0001192,53.2181,10.755,98.3263,261.7864,0.00014624,2.041e-05,0.0,0 STARLINK-4074,1 52678U 22053Y   23151.88976375  .00002041  00000-0  14624-3 0  9992,2 52678  53.2181  10.7550 0001192  98.3263 261.7864 15.08846186 58275,6917.861,95.437,540.551,538.902,0.0
52678.0,STARLINK-4074,PAYLOAD,2023-06-01 00:32:02,15.08847284,0.0001182,53.2172,10.1611,95.2962,264.8165,0.00020133,2.918e-05,0.0,0 STARLINK-4074,1 52678U 22053Y   23152.02224560  .00002918  00000-0  20133-3 0  9996,2 52678  53.2172  10.1611 0001182  95.2962 264.8165 15.08847284 58298,6917.858,95.437,540.541,538.905,0.0
52678.0,STARLINK-4074,PAYLOAD,2023-06-01 21:12:03,15.08839291,0.000113,53.2173,6.2947,92.5021,267.6101,-9.343e-06,-4.36e-06,0.0,0 STARLINK-4074,1 52678U 22053Y   23152.88336984 -.00000436  00000-0 -93430-5 0  9991,2 52678  53.2173   6.2947 0001130  92.5021 267.6101 15.08839291 57992,6917.883,95.438,540.529,538.966,0.0
52678.0,STARLINK-4074,PAYLOAD,2023-06-02 00:22:49,15.08840005,0.0001135,53.2179,5.6998,93.8982,266.214,1.9396e-05,2.1e-07,0.0,0 STARLINK-4074,1 52678U 22053Y   23153.01585094  .00000021  00000-0  19396-4 0  9991,2 52678  53.2179   5.6998 0001135  93.8982 266.2140 15.08840005 58446,6917.88,95.438,540.531,538.96,0.0
52678.0,STARLINK-4074,PAYLOAD,2023-06-02 17:52:04,15.08833085,0.0001043,53.2181,2.4283,91.4851,268.6261,-5.8183e-05,-1.213e-05,0.0,0 STARLINK-4074,1 52678U 22053Y   23153.74449923 -.00001213  00000-0 -58183-4 0  9994,2 52678  53.2181   2.4283 0001043  91.4851 268.6261 15.08833085 58123,6917.902,95.438,540.488,539.045,0.0
52678.0,STARLINK-4074,PAYLOAD,2023-06-02 21:02:50,15.08836506,9.46e-05,53.2177,1.8354,92.1946,267.9154,-1.8538e-05,-5.83e-06,0.0,0 STARLINK-4074,1 52678U 22053Y   23153.87697557 -.00000583  00000-0 -18538-4 0  9995,2 52678  53.2177   1.8354 0000946  92.1946 267.9154 15.08836506 58577,6917.891,95.438,540.411,539.102,0.0
52678.0,STARLINK-4074,PAYLOAD,2023-06-03 06:35:09,15.08840101,9.48e-05,53.2177,0.0519,91.8252,268.2848,-2.7893e-05,-7.32e-06,0.0,0 STARLINK-4074,1 52678U 22053Y   23154.27441441 -.00000732  00000-0 -27893-4 0  9999,2 52678  53.2177   0.0519 0000948  91.8252 268.2848 15.08840101 58209,6917.88,95.438,540.401,539.089,0.0
52678.0,STARLINK-4074,PAYLOAD,2023-06-03 12:56:42,15.08834641,9.21e-05,53.2176,358.8623,95.1417,264.968,9.3185e-05,1.195e-05,0.0,0 STARLINK-4074,1 52678U 22053Y   23154.53937683  .00001195  00000-0  93185-4 0  9995,2 52678  53.2176 358.8623 0000921  95.1417 264.9680 15.08834641 58679,6917.897,95.438,540.399,539.125,0.0
52678.0,STARLINK-4074,PAYLOAD,2023-06-03 20:53:37,15.0885733,8.59e-05,53.2175,357.3758,101.337,258.7718,-9.35e-05,-1.776e-05,0.0,0 STARLINK-4074,1 52678U 22053Y   23154.87056878 -.00001776  00000-0 -93500-4 0  9998,2 52678  53.2175 357.3758 0000859 101.3370 258.7718 15.08857330 58728,6917.827,95.436,540.287,539.098,0.0
52678.0,STARLINK-4074,PAYLOAD,2023-06-04 00:04:23,15.08845788,0.0001009,53.2175,356.781,105.1465,254.9639,0.00017089,2.433e-05,0.0,0 STARLINK-4074,1 52678U 22053Y   23155.00304908  .00002433  00000-0  17089-3 0  9990,2 52678  53.2175 356.7810 0001009 105.1465 254.9639 15.08845788 58314,6917.863,95.437,540.426,539.03,0.0
52678.0,STARLINK-4074,PAYLOAD,2023-06-04 19:09:01,15.08844668,0.0001116,53.217,353.2129,86.8181,273.2939,-1.3342e-05,-5e-06,0.0,0 STARLINK-4074,1 52678U 22053Y   23155.79793654 -.00000500  00000-0 -13342-4 0  9990,2 52678  53.2170 353.2129 0001116  86.8181 273.2939 15.08844668 58439,6917.866,95.437,540.503,538.959,0.0
52678.0,STARLINK-4074,PAYLOAD,2023-06-04 22:19:47,15.08843738,9.05e-05,53.2173,352.618,92.2467,267.8629,0.00017689,2.529e-05,0.0,0 STARLINK-4074,1 52678U 22053Y   23155.93041221  .00002529  00000-0  17689-3 0  9990,2 52678  53.2173 352.6180 0000905  92.2467 267.8629 15.08843738 58886,6917.869,95.437,540.36,539.108,0.0
52678.0,STARLINK-4074,PAYLOAD,2023-06-05 06:16:44,15.08829157,7.63e-05,53.2179,351.1317,93.5275,266.5805,3.2635e-05,2.32e-06,0.0,0 STARLINK-4074,1 52678U 22053Y   23156.26162525  .00000232  00000-0  32635-4 0  9996,2 52678  53.2179 351.1317 0000763  93.5275 266.5805 15.08829157 58501,6917.914,95.438,540.306,539.251,0.0
52678.0,STARLINK-4074,PAYLOAD,2023-06-05 12:38:16,15.08833558,7.15e-05,53.2172,349.9419,82.5408,277.5666,-7.4175e-06,-4.06e-06,0.0,0 STARLINK-4074,1 52678U 22053Y   23156.52658436 -.00000406  00000-0 -74175-5 0  9997,2 52678  53.2172 349.9419 0000715  82.5408 277.5666 15.08833558 58973,6917.9,95.438,540.26,539.27,0.0
52678.0,STARLINK-4074,PAYLOAD,2023-06-05 18:59:48,15.08841593,0.0001042,53.217,348.7523,79.3298,280.7812,4.645e-05,4.52e-06,0.0,0 STARLINK-4074,1 52678U 22053Y   23156.79153882  .00000452  00000-0  46450-4 0  9994,2 52678  53.2170 348.7523 0001042  79.3298 280.7812 15.08841593 59012,6917.876,95.437,540.461,539.02,0.0
52678.0,STARLINK-4074,PAYLOAD,2023-06-05 23:45:57,15.08847612,0.0001027,53.2174,347.8602,80.1963,279.9146,9.5022e-05,1.225e-05,0.0,0 STARLINK-4074,1 52678U 22053Y   23156.99025360  .00001225  00000-0  95022-4 0  9993,2 52678  53.2174 347.8602 0001027  80.1963 279.9146 15.08847612 58619,6917.857,95.437,540.433,539.012,0.0
52678.0,STARLINK-4074,PAYLOAD,2023-06-06 12:29:03,15.08840547,9.73e-05,53.2165,345.4815,83.6052,276.5051,0.00011821,1.594e-05,0.0,0 STARLINK-4074,1 52678U 22053Y   23157.52017749  .00001594  00000-0  11821-3 0  9998,2 52678  53.2165 345.4815 0000973  83.6052 276.5051 15.08840547 59120,6917.879,95.438,540.417,539.071,0.0
52678.0,STARLINK-4074,PAYLOAD,2023-06-06 18:50:35,15.08850723,9.16e-05,53.2166,344.2919,85.4006,274.709,0.00020833,3.03e-05,0.0,0 STARLINK-4074,1 52678U 22053Y   23157.78513305  .00003030  00000-0  20833-3 0  9995,2 52678  53.2166 344.2919 0000916  85.4006 274.7090 15.08850723 59163,6917.848,95.437,540.346,539.079,0.0
52678.0,STARLINK-4074,PAYLOAD,2023-06-07 05:58:17,15.08846806,9.04e-05,53.2164,342.2099,82.2918,277.8177,0.00022127,3.236e-05,0.0,0 STARLINK-4074,1 52678U 22053Y   23158.24881433  .00003236  00000-0  22127-3 0  9993,2 52678  53.2164 342.2099 0000904  82.2918 277.8177 15.08846806 58809,6917.86,95.437,540.35,539.099,0.0
52678.0,STARLINK-4074,PAYLOAD,2023-06-07 12:19:50,15.08836316,9.14e-05,53.2166,341.0211,79.3094,280.8001,7.4542e-05,8.99e-06,0.0,0 STARLINK-4074,1 52678U 22053Y   23158.51377879  .00000899  00000-0  74542-4 0  9998,2 52678  53.2166 341.0211 0000914  79.3094 280.8001 15.08836316 59274,6917.892,95.438,540.389,539.124,0.0
52678.0,STARLINK-4074,PAYLOAD,2023-06-07 21:52:09,15.08844215,0.0001105,53.2175,339.2366,92.9226,267.1893,0.00012108,1.64e-05,0.0,0 STARLINK-4074,1 52678U 22053Y   23158.91121538  .00001640  00000-0  12108-3 0  9995,2 52678  53.2175 339.2366 0001105  92.9226 267.1893 15.08844215 59336,6917.868,95.437,540.497,538.968,0.0
52678.0,STARLINK-4074,PAYLOAD,2023-06-08 12:10:37,15.08838215,0.0001061,53.2179,336.5593,97.3753,262.736,4.3397e-05,4.03e-06,0.0,0 STARLINK-4074,1 52678U 22053Y   23159.50737806  .00000403  00000-0  43397-4 0  9993,2 52678  53.2179 336.5593 0001061  97.3753 262.7360 15.08838215 59420,6917.886,95.438,540.485,539.017,0.0
52678.0,STARLINK-4074,PAYLOAD,2023-06-09 12:01:24,15.08834117,9.69e-05,53.2171,332.1003,100.0041,260.1061,3.0883e-05,2.04e-06,0.0,0 STARLINK-4074,1 52678U 22053Y   23160.50098112  .00000204  00000-0  30883-4 0  9990,2 52678  53.2171 332.1003 0000969 100.0041 260.1061 15.08834117 59571,6917.898,95.438,540.434,539.093,0.0
52678.0,STARLINK-4074,PAYLOAD,2023-06-09 18:22:57,15.0883404,8.3e-05,53.2172,330.913,92.9593,267.1494,8.6087e-05,1.082e-05,0.0,0 STARLINK-4074,1 52678U 22053Y   23160.76594213  .00001082  00000-0  86087-4 0  9993,2 52678  53.2172 330.9130 0000830  92.9593 267.1494 15.08834040 59186,6917.899,95.438,540.338,539.189,0.0
52678.0,STARLINK-4074,PAYLOAD,2023-06-10 10:16:48,15.08836899,8.23e-05,53.2169,327.9382,102.0484,258.06,0.00011715,1.577e-05,0.0,0 STARLINK-4074,1 52678U 22053Y   23161.42834211  .00001577  00000-0  11715-3 0  9996,2 52678  53.2169 327.9382 0000823 102.0484 258.0600 15.08836899 59712,6917.89,95.438,540.324,539.186,0.0
52678.0,STARLINK-4074,PAYLOAD,2023-06-10 18:13:44,15.0884315,0.0001352,53.2179,326.4512,109.3825,250.7314,8.4682e-05,1.06e-05,0.0,0 STARLINK-4074,1 52678U 22053Y   23161.75953969  .00001060  00000-0  84682-4 0  9995,2 52678  53.2179 326.4512 0001352 109.3825 250.7314 15.08843150 59336,6917.871,95.437,540.671,538.8,0.0
52678.0,STARLINK-4074,PAYLOAD,2023-06-10 19:49:07,15.0884911,0.0001238,53.2181,326.1532,108.1545,251.9582,7.4417e-05,8.97e-06,0.0,0 STARLINK-4074,1 52678U 22053Y   23161.82577602  .00000897  00000-0  74417-4 0  9991,2 52678  53.2181 326.1532 0001238 108.1545 251.9582 15.08849110 59777,6917.853,95.437,540.574,538.861,0.0
52678.0,STARLINK-4074,PAYLOAD,2023-06-11 13:18:22,15.08837104,9.77e-05,53.2181,322.8822,88.2378,271.8726,9.5957e-05,1.24e-05,0.0,0 STARLINK-4074,1 52678U 22053Y   23162.55442544  .00001240  00000-0  95957-4 0  9993,2 52678  53.2181 322.8822 0000977  88.2378 271.8726 15.08837104 59886,6917.889,95.438,540.43,539.078,0.0
52678.0,STARLINK-4074,PAYLOAD,2023-06-11 19:39:54,15.08842591,9.87e-05,53.2181,321.6928,85.9769,274.1336,0.00013141,1.804e-05,0.0,0 STARLINK-4074,1 52678U 22053Y   23162.81938120  .00001804  00000-0  13141-3 0  9992,2 52678  53.2181 321.6928 0000987  85.9769 274.1336 15.08842591 59923,6917.872,95.437,540.42,539.055,0.0
52678.0,STARLINK-4074,PAYLOAD,2023-06-12 03:36:50,15.0883664,0.0001038,53.2178,320.2064,85.5349,274.5762,6.779e-05,7.91e-06,0.0,0 STARLINK-4074,1 52678U 22053Y   23163.15058675  .00000791  00000-0  67790-4 0  9992,2 52678  53.2178 320.2064 0001038  85.5349 274.5762 15.08836640 59973,6917.891,95.438,540.474,539.038,0.0
